// 스타링크 TLE 폴백 스냅샷 (CelesTrak 라이브 불가/레이트리밋 시 서버가 제공).
// 실제 공개 TLE 350기 샘플 — SGP4로 실제 궤도 계산(에폭만 약간 과거, 며칠 유효).
export const STARLINK_FALLBACK_TLE = `
STARLINK-1008
1 44714U 19074B   26161.15250135  .00059101  00000+0  10663-2 0  9992
2 44714  53.1510 102.3904 0002728 100.7272 259.4044 15.49209035363125
STARLINK-1172
1 45074U 20006AG  26161.33003664  .00040073  00000+0  10382-2 0  9998
2 45074  53.1542 184.7209 0004616 352.2577   7.8355 15.38664820351090
STARLINK-1301
1 45361U 20019B   26161.27770931  .00105320  00000+0  53478-3 0  9993
2 45361  53.0357   5.4173 0000385  86.1047 274.0018 15.80700988345163
STARLINK-1338
1 45532U 20025B   26160.82084190  .00053605  00000+0  47518-3 0  9991
2 45532  53.0448 354.3732 0002728 107.6759 252.4554 15.68075433339808
STARLINK-1460
1 45676U 20035V   26161.24668997  .00043951  00000+0  12672-2 0  9996
2 45676  53.1589 353.9444 0002413 175.1852 184.9175 15.35307939332909
STARLINK-1482
1 45773U 20038AV  26161.19484692  .00046701  00000+0  12319-2 0  9993
2 45773  53.1547 118.8038 0004790  39.7734 320.3621 15.38038971331048
STARLINK-1551
1 46075U 20055BA  26160.96352862  .00020210  00000+0  68899-3 0  9997
2 46075  53.1607  32.4618 0001857 148.9771 211.1340 15.30370967323368
STARLINK-1646
1 46351U 20062AC  26161.48068470  .00137610  00000+0  76711-3 0  9994
2 46351  53.0369 238.4439 0008826 350.8949   9.1909 15.78479659319453
STARLINK-1797
1 46698U 20073AE  26161.13944982  .00074329  00000+0  63075-3 0  9999
2 46698  53.0393 116.9807 0006841  51.0117 309.1507 15.68984506312041
STARLINK-1913
1 47179U 20088BK  26160.93980134  .00046062  00000+0  13587-2 0  9991
2 47179  53.1586 237.5939 0004345   1.7737 358.3280 15.34565418305905
STARLINK-2110
1 47389U 21005AS  26161.18076962  .00000747  00000+0  35854-4 0  9990
2 47389  53.1601 326.4867 0001142  77.5982 282.5148 15.31693094297561
STARLINK-1992
1 47632U 21012N   26161.49170880  .00005394  00000+0  18543-3 0  9995
2 47632  53.1602 261.0001 0001332  91.0445 269.0709 15.31703349295570
STARLINK-2178
1 47760U 21017AQ  26161.26698507  .00000872  00000+0  39859-4 0  9998
2 47760  53.1592 146.0548 0001173 102.3277 257.7856 15.31694630291878
STARLINK-2396
1 47815U 21018AE  26161.33906950  .00001542  00000+0  61465-4 0  9995
2 47815  53.1587 171.7025 0001196  93.0701 267.0437 15.31690573290916
STARLINK-2330
1 47874U 21021Q   26161.22086741  .00051594  00000+0  14015-2 0  9998
2 47874  53.1430 145.0128 0005153  48.6850 311.4596 15.37085811291150
STARLINK-2414
1 48095U 21027D   26161.10559936  .00002471  00000+0  91371-4 0  9990
2 48095  53.1614  95.5616 0001353  99.6390 260.4765 15.31697698286683
STARLINK-2475
1 48133U 21027AT  26161.11025210  .00001446  00000+0  58344-4 0  9991
2 48133  53.1613  95.4684 0001210  99.2783 260.8355 15.31697099286676
STARLINK-2559
1 48298U 21036Y   26161.29175910  .00044356  00000+0  12952-2 0  9995
2 48298  53.1604   4.2140 0001554 223.8454 136.2426 15.34906726282601
STARLINK-2613
1 48353U 21038A   26161.07367113  .00004176  00000+0  14626-3 0  9990
2 48353  53.1603 288.3816 0001317  78.3127 281.8023 15.31701717281232
STARLINK-2607
1 48391U 21038AQ  26160.98804091  .00003421  00000+0  12192-3 0  9990
2 48391  53.1576 263.6575 0001067  93.1344 266.9779 15.31709672282791
STARLINK-2645
1 48444U 21040S   26161.14127556  .00001366  00000+0  55759-4 0  9998
2 48444  53.1600 108.1130 0001275 105.1598 254.9544 15.31703021280847
STARLINK-2139
1 48554U 21041B   26161.40328296 -.00002893  00000+0 -81398-4 0  9990
2 48554  53.1608  55.4154 0000963 100.4084 259.7026 15.31733911279485
STARLINK-2255
1 48597U 21041AW  26161.46763148  .00001900  00000+0  72967-4 0  9990
2 48597  53.1615  67.9240 0001346 101.1364 258.9789 15.31700003280574
STARLINK-2705
1 48672U 21044AL  26161.36566767  .00003025  00000+0  10917-3 0  9990
2 48672  53.1609  33.2041 0001299  97.1332 262.9817 15.31705572278156
STARLINK-3093
1 49141U 21082M   26161.43938985  .00000121  00000+0  17946-4 0  9991
2 49141  70.0004  60.6132 0002594 262.4240  97.6624 14.98337507261077
STARLINK-3059
1 49181U 21082BD  26161.13063781  .00001717  00000+0  15175-3 0  9998
2 49181  70.0001  61.3828 0002883 273.9860  86.0969 14.98311359261019
STARLINK-3128
1 49441U 21104AK  26161.27322606 -.00000104  00000+0  11580-4 0  9998
2 49441  53.1627 153.4420 0001373  86.8339 273.2810 15.08831999252890
STARLINK-3225
1 49737U 21115P   26161.07636760 -.00002574  00000+0 -14378-3 0  9996
2 49737  53.1640  94.3287 0001018  91.3107 268.8001 15.08813986249486
STARLINK-3196
1 49768U 21115AW  26161.06621890  .00000656  00000+0  59286-4 0  9992
2 49768  53.1625  84.3750 0000861  78.9272 281.1817 15.08834133249622
STARLINK-3259
1 50192U 21125AN  26161.30358890  .00000654  00000+0  59220-4 0  9996
2 50192  53.1612 183.3066 0001237  87.4666 272.6467 15.08826980250710
STARLINK-3290
1 50828U 22001AB  26161.14904664 -.00000993  00000+0 -44311-4 0  9997
2 50828  53.1644 113.8949 0000736  95.5425 264.5650 15.08837049244215
STARLINK-3397
1 51115U 22005M   26161.48298451 -.00000268  00000+0  12303-5 0  9999
2 51115  53.1641 232.4994 0001214  83.7550 276.3580 15.08832393242881
STARLINK-3360
1 51149U 22005AX  26161.52623861  .00000342  00000+0  39614-4 0  9993
2 51149  53.1635 252.1214 0001301  88.8311 271.2829 15.08833004242614
STARLINK-3517
1 51735U 22016X   26160.99814560  .00002001  00000+0  14382-3 0  9992
2 51735  53.1623 264.6795 0001134  88.9371 271.1751 15.08831905237508
STARLINK-3624
1 51773U 22017F   26161.47519579  .00002286  00000+0  16110-3 0  9997
2 51773  53.1871 282.5132 0001071  79.9234 280.1879 15.08974103236617
STARLINK-3609
1 51808U 22017AS  26161.49307528  .00004253  00000+0  28495-3 0  9992
2 51808  53.1703 282.4593 0001498 123.2488 236.8647 15.08867307237975
STARLINK-3585
1 51875U 22022Z   26161.12603278  .00007732  00000+0  50408-3 0  9997
2 51875  53.1624 314.0165 0001363 100.0566 260.0579 15.08787335237075
STARLINK-3690
1 51964U 22025J   26161.22435477  .00002572  00000+0  94600-4 0  9994
2 51964  53.1610 313.8311 0001189  67.3305 292.7822 15.31706008235199
STARLINK-3653
1 52000U 22025AW  26161.15453861  .00000499  00000+0  49482-4 0  9999
2 52000  53.1630 323.8881 0001142  90.8334 269.2788 15.08825835234887
STARLINK-3726
1 52122U 22029AL  26161.32567701  .00003870  00000+0  26133-3 0  9999
2 52122  53.1612  23.2079 0001384  88.2723 271.8427 15.08810768234779
STARLINK-3778
1 52276U 22041R   26161.40755744  .00008215  00000+0  53439-3 0  9995
2 52276  53.1620  52.8384 0001427 105.7195 254.3954 15.08788343228363
STARLINK-3752
1 52312U 22041BD  26160.92729873 -.00000756  00000+0 -29394-4 0  9994
2 52312  53.1616  34.9492 0002053  88.2336 271.8890 15.08837525229796
STARLINK-3830
1 52363U 22045AJ  26161.27046535 -.00006108  00000+0 -36621-3 0  9997
2 52363  53.1601 143.4510 0001245 126.5131 233.5975 15.08820473229764
STARLINK-3904
1 52464U 22049P   26161.47471189  .00001025  00000+0  82493-4 0  9992
2 52464  53.1600   2.5351 0001172  90.0325 270.0800 15.08820642226254
STARLINK-3925
1 52498U 22049AZ  26161.19687428  .00001171  00000+0  91707-4 0  9993
2 52498  53.1628 343.7831 0001447  88.5767 271.5390 15.08820712226495
STARLINK-3959
1 52564U 22051AH  26161.49636137  .00000535  00000+0  51704-4 0  9990
2 52564  53.1625  77.4504 0001208  88.4267 271.6863 15.08837007225381
STARLINK-3997
1 52609U 22052M   26161.43606038 -.00000063  00000+0  14115-4 0  9994
2 52609  53.1615 222.6653 0001037  72.2528 287.8576 15.08836909224862
STARLINK-3971
1 52642U 22052AW  26161.40846307 -.00002527  00000+0 -14070-3 0  9990
2 52642  53.1621 202.8349 0001240  84.7289 275.3844 15.08842609225120
STARLINK-3774
1 52680U 22053AA  26161.07861723 -.00001645  00000+0 -85239-4 0  9991
2 52680  53.1646  89.0833 0001559  78.5541 281.5626 15.08840903225107
STARLINK-4080
1 52835U 22062F   26161.22860772 -.00000553  00000+0 -16623-4 0  9991
2 52835  53.1641 338.6423 0001407 109.3511 250.7633 15.08832136219753
STARLINK-4274
1 52865U 22062AM  26161.19272491  .00001819  00000+0  13237-3 0  9996
2 52865  53.1622 328.8033 0001009  80.3595 279.7510 15.08827432219894
STARLINK-4255
1 53003U 22076T   26160.93604562 -.00000425  00000+0 -85970-5 0  9994
2 53003  53.1658  39.9572 0001077  92.4281 267.6834 15.08831554216776
STARLINK-4157
1 53035U 22076BB  26160.89004558 -.00000382  00000+0 -59179-5 0  9997
2 53035  53.1638  20.1641 0001447  89.4799 270.6358 15.08834421217041
STARLINK-4328
1 53071U 22077AE  26161.50208477 -.00000635  00000+0 -39988-4 0  9999
2 53071  97.3797 341.9912 0002251  87.1436 273.0049 15.05655053214959
STARLINK-4040
1 53151U 22083V   26161.13936324 -.00000266  00000+0  13553-5 0  9993
2 53151  53.1646 109.0474 0001251  87.0833 273.0301 15.08834558215310
STARLINK-4268
1 53183U 22083BD  26161.46458444  .00005844  00000+0  38531-3 0  9993
2 53183  53.1619  72.4964 0001240  96.8186 263.2947 15.08804657215841
STARLINK-4377
1 53221U 22084AJ  26161.40103955 -.00000927  00000+0 -60276-4 0  9996
2 53221  97.3780 220.7559 0002493 100.6722 259.4786 15.05660238213266
STARLINK-4085
1 53262U 22086W   26161.21388436 -.00000350  00000+0 -38754-5 0  9998
2 53262  53.1631 138.7112 0001387  87.6278 272.4872 15.08834863215038
STARLINK-4521
1 53391U 22097D   26161.44848257 -.00012817  00000+0 -78757-3 0  9996
2 53391  53.1608  67.6557 0001127  73.2510 286.8605 15.08887469212670
STARLINK-4546
1 53422U 22097AL  26161.40157926  .00009659  00000+0  62495-3 0  9993
2 53422  53.1614  57.8671 0001145 102.1822 257.9297 15.08790443212646
STARLINK-4442
1 53480U 22099R   26161.50002315  .00026784  00000+0  60674-3 0  9996
2 53480  97.6027 284.9686 0001519  60.8011 126.6133 15.43085230  5893
STARLINK-4493
1 53533U 22101G   26161.33532451  .00000236  00000+0  32901-4 0  9996
2 53533  53.1625  18.1503 0001282  92.3243 267.7895 15.08833694210157
STARLINK-4583
1 53568U 22101AT  26161.27090637 -.00002685  00000+0 -15068-3 0  9998
2 53568  53.1629 358.3211 0001146  84.1666 275.9456 15.08836318211118
